[{"OBJECT_NAME":"ONEWEB-0031","OBJECT_ID":"2020-020H","EPOCH":"2023-11-20T14:12:43.886304","MEAN_MOTION":13.1141546,"ECCENTRICITY":0.0001821,"INCLINATION":87.8999,"RA_OF_ASC_NODE":207.7453,"ARG_OF_PERICENTER":81.032,"MEAN_ANOMALY":279.1014,"EPHEMERIS_TYPE":0,"CLASSIFICATION_TYPE":"U","NORAD_CAT_ID":45431,"ELEMENT_SET_NO":999,"REV_AT_EPOCH":17950,"BSTAR":0.0013603,"MEAN_MOTION_DOT":4.95e-6,"MEAN_MOTION_DDOT":0},{"OBJECT_NAME":"ONEWEB-0027","OBJECT_ID":"2020-020J","EPOCH":"2023-11-20T14:17:31.827264","MEAN_MOTION":13.17649045,"ECCENTRICITY":0.0001685,"INCLINATION":87.9228,"RA_OF_ASC_NODE":192.6331,"ARG_OF_PERICENTER":87.7592,"MEAN_ANOMALY":272.3732,"EPHEMERIS_TYPE":0,"CLASSIFICATION_TYPE":"U","NORAD_CAT_ID":45432,"ELEMENT_SET_NO":999,"REV_AT_EPOCH":18262,"BSTAR":-6.0578e-5,"MEAN_MOTION_DOT":-1.1e-7,"MEAN_MOTION_DDOT":0},{"OBJECT_NAME":"ONEWEB-0064","OBJECT_ID":"2020-020K","EPOCH":"2023-11-20T10:30:38.428992","MEAN_MOTION":13.11417748,"ECCENTRICITY":0.0001506,"INCLINATION":87.8993,"RA_OF_ASC_NODE":207.7933,"ARG_OF_PERICENTER":88.1604,"MEAN_ANOMALY":271.9696,"EPHEMERIS_TYPE":0,"CLASSIFICATION_TYPE":"U","NORAD_CAT_ID":45433,"ELEMENT_SET_NO":999,"REV_AT_EPOCH":17951,"BSTAR":0.0014637,"MEAN_MOTION_DOT":5.31e-6,"MEAN_MOTION_DDOT":0},{"OBJECT_NAME":"ONEWEB-0018","OBJECT_ID":"2020-020L","EPOCH":"2023-11-20T09:27:31.036608","MEAN_MOTION":13.11414994,"ECCENTRICITY":0.0001495,"INCLINATION":87.9001,"RA_OF_ASC_NODE":207.7944,"ARG_OF_PERICENTER":71.1711,"MEAN_ANOMALY":288.9579,"EPHEMERIS_TYPE":0,"CLASSIFICATION_TYPE":"U","NORAD_CAT_ID":45434,"ELEMENT_SET_NO":999,"REV_AT_EPOCH":17945,"BSTAR":-0.00098343,"MEAN_MOTION_DOT":-3.36e-6,"MEAN_MOTION_DDOT":0},{"OBJECT_NAME":"ONEWEB-0083","OBJECT_ID":"2020-020M","EPOCH":"2023-11-20T09:11:09.731328","MEAN_MOTION":13.11413797,"ECCENTRICITY":0.0001611,"INCLINATION":87.8992,"RA_OF_ASC_NODE":207.7787,"ARG_OF_PERICENTER":77.9147,"MEAN_ANOMALY":282.2161,"EPHEMERIS_TYPE":0,"CLASSIFICATION_TYPE":"U","NORAD_CAT_ID":45435,"ELEMENT_SET_NO":999,"REV_AT_EPOCH":17950,"BSTAR":0.00029808,"MEAN_MOTION_DOT":1.18e-6,"MEAN_MOTION_DDOT":0},{"OBJECT_NAME":"ONEWEB-0095","OBJECT_ID":"2020-020N","EPOCH":"2023-11-20T08:59:40.410528","MEAN_MOTION":13.11416111,"ECCENTRICITY":0.0001972,"INCLINATION":87.8998,"RA_OF_ASC_NODE":207.8176,"ARG_OF_PERICENTER":78.3989,"MEAN_ANOMALY":281.7361,"EPHEMERIS_TYPE":0,"CLASSIFICATION_TYPE":"U","NORAD_CAT_ID":45436,"ELEMENT_SET_NO":999,"REV_AT_EPOCH":17949,"BSTAR":0.0010846,"MEAN_MOTION_DOT":3.97e-6,"MEAN_MOTION_DDOT":0},{"OBJECT_NAME":"ONEWEB-0092","OBJECT_ID":"2020-020P","EPOCH":"2023-11-20T10:02:34.567296","MEAN_MOTION":13.11409047,"ECCENTRICITY":0.0002153,"INCLINATION":87.9002,"RA_OF_ASC_NODE":207.788,"ARG_OF_PERICENTER":76.9377,"MEAN_ANOMALY":283.1991,"EPHEMERIS_TYPE":0,"CLASSIFICATION_TYPE":"U","NORAD_CAT_ID":45437,"ELEMENT_SET_NO":999,"REV_AT_EPOCH":17961,"BSTAR":0.0030708,"MEAN_MOTION_DOT":1.101e-5,"MEAN_MOTION_DDOT":0},{"OBJECT_NAME":"ONEWEB-0085","OBJECT_ID":"2020-020Q","EPOCH":"2023-11-20T09:01:48.489888","MEAN_MOTION":13.1141556,"ECCENTRICITY":0.0001377,"INCLINATION":87.8989,"RA_OF_ASC_NODE":207.8024,"ARG_OF_PERICENTER":75.6029,"MEAN_ANOMALY":284.5252,"EPHEMERIS_TYPE":0,"CLASSIFICATION_TYPE":"U","NORAD_CAT_ID":45438,"ELEMENT_SET_NO":999,"REV_AT_EPOCH":17949,"BSTAR":0.00073002,"MEAN_MOTION_DOT":2.71e-6,"MEAN_MOTION_DDOT":0},{"OBJECT_NAME":"ONEWEB-0096","OBJECT_ID":"2020-020R","EPOCH":"2023-11-20T09:13:30.563328","MEAN_MOTION":13.11411475,"ECCENTRICITY":0.0001437,"INCLINATION":87.8992,"RA_OF_ASC_NODE":207.7745,"ARG_OF_PERICENTER":67.1567,"MEAN_ANOMALY":292.9713,"EPHEMERIS_TYPE":0,"CLASSIFICATION_TYPE":"U","NORAD_CAT_ID":45439,"ELEMENT_SET_NO":999,"REV_AT_EPOCH":17949,"BSTAR":1.9363e-5,"MEAN_MOTION_DOT":2.0e-7,"MEAN_MOTION_DDOT":0},{"OBJECT_NAME":"ONEWEB-0037","OBJECT_ID":"2020-020S","EPOCH":"2023-11-20T14:17:23.070624","MEAN_MOTION":13.11417636,"ECCENTRICITY":0.0001814,"INCLINATION":87.8986,"RA_OF_ASC_NODE":207.7292,"ARG_OF_PERICENTER":69.3341,"MEAN_ANOMALY":290.7982,"EPHEMERIS_TYPE":0,"CLASSIFICATION_TYPE":"U","NORAD_CAT_ID":45440,"ELEMENT_SET_NO":999,"REV_AT_EPOCH":17954,"BSTAR":0.0014406,"MEAN_MOTION_DOT":5.23e-6,"MEAN_MOTION_DDOT":0},{"OBJECT_NAME":"ONEWEB-0042","OBJECT_ID":"2020-020T","EPOCH":"2023-11-20T14:28:53.227776","MEAN_MOTION":13.11416258,"ECCENTRICITY":0.0001626,"INCLINATION":87.8991,"RA_OF_ASC_NODE":207.7475,"ARG_OF_PERICENTER":67.5176,"MEAN_ANOMALY":292.6124,"EPHEMERIS_TYPE":0,"CLASSIFICATION_TYPE":"U","NORAD_CAT_ID":45441,"ELEMENT_SET_NO":999,"REV_AT_EPOCH":17951,"BSTAR":0.00097248,"MEAN_MOTION_DOT":3.57e-6,"MEAN_MOTION_DDOT":0},{"OBJECT_NAME":"ONEWEB-0098","OBJECT_ID":"2020-020U","EPOCH":"2023-11-20T08:50:08.223072","MEAN_MOTION":13.11417587,"ECCENTRICITY":0.0001435,"INCLINATION":87.9,"RA_OF_ASC_NODE":207.8004,"ARG_OF_PERICENTER":78.2524,"MEAN_ANOMALY":281.8765,"EPHEMERIS_TYPE":0,"CLASSIFICATION_TYPE":"U","NORAD_CAT_ID":45442,"ELEMENT_SET_NO":999,"REV_AT_EPOCH":17946,"BSTAR":0.0015936,"MEAN_MOTION_DOT":5.78e-6,"MEAN_MOTION_DDOT":0},{"OBJECT_NAME":"ONEWEB-0055","OBJECT_ID":"2020-020V","EPOCH":"2023-11-20T10:22:27.749568","MEAN_MOTION":13.11417375,"ECCENTRICITY":0.0001426,"INCLINATION":87.8999,"RA_OF_ASC_NODE":207.7919,"ARG_OF_PERICENTER":74.4548,"MEAN_ANOMALY":285.6737,"EPHEMERIS_TYPE":0,"CLASSIFICATION_TYPE":"U","NORAD_CAT_ID":45443,"ELEMENT_SET_NO":999,"REV_AT_EPOCH":17944,"BSTAR":0.0010498,"MEAN_MOTION_DOT":3.85e-6,"MEAN_MOTION_DDOT":0},{"OBJECT_NAME":"ONEWEB-0093","OBJECT_ID":"2020-020W","EPOCH":"2023-11-20T04:14:17.851200","MEAN_MOTION":13.11414792,"ECCENTRICITY":0.0001385,"INCLINATION":87.8995,"RA_OF_ASC_NODE":207.8237,"ARG_OF_PERICENTER":71.0995,"MEAN_ANOMALY":289.0283,"EPHEMERIS_TYPE":0,"CLASSIFICATION_TYPE":"U","NORAD_CAT_ID":45444,"ELEMENT_SET_NO":999,"REV_AT_EPOCH":17947,"BSTAR":-0.00016624,"MEAN_MOTION_DOT":-4.6e-7,"MEAN_MOTION_DDOT":0},{"OBJECT_NAME":"ONEWEB-0029","OBJECT_ID":"2020-020X","EPOCH":"2023-11-20T13:51:39.991680","MEAN_MOTION":13.11418851,"ECCENTRICITY":0.0001674,"INCLINATION":87.9,"RA_OF_ASC_NODE":207.7552,"ARG_OF_PERICENTER":66.0041,"MEAN_ANOMALY":294.1262,"EPHEMERIS_TYPE":0,"CLASSIFICATION_TYPE":"U","NORAD_CAT_ID":45445,"ELEMENT_SET_NO":999,"REV_AT_EPOCH":17950,"BSTAR":0.00028381,"MEAN_MOTION_DOT":1.13e-6,"MEAN_MOTION_DDOT":0},{"OBJECT_NAME":"ONEWEB-0068","OBJECT_ID":"2020-020Y","EPOCH":"2023-11-20T09:35:41.908704","MEAN_MOTION":13.11418167,"ECCENTRICITY":0.0001461,"INCLINATION":87.8994,"RA_OF_ASC_NODE":207.7778,"ARG_OF_PERICENTER":68.2615,"MEAN_ANOMALY":291.8669,"EPHEMERIS_TYPE":0,"CLASSIFICATION_TYPE":"U","NORAD_CAT_ID":45446,"ELEMENT_SET_NO":999,"REV_AT_EPOCH":17943,"BSTAR":-0.0013185,"MEAN_MOTION_DOT":-4.55e-6,"MEAN_MOTION_DDOT":0},{"OBJECT_NAME":"ONEWEB-0046","OBJECT_ID":"2020-020Z","EPOCH":"2023-11-20T09:32:11.007168","MEAN_MOTION":13.1141465,"ECCENTRICITY":0.0001945,"INCLINATION":87.8992,"RA_OF_ASC_NODE":207.7908,"ARG_OF_PERICENTER":72.3903,"MEAN_ANOMALY":287.7438,"EPHEMERIS_TYPE":0,"CLASSIFICATION_TYPE":"U","NORAD_CAT_ID":45447,"ELEMENT_SET_NO":999,"REV_AT_EPOCH":17944,"BSTAR":-0.0013604,"MEAN_MOTION_DOT":-4.69e-6,"MEAN_MOTION_DDOT":0}]
