ONEWEB-0031             
1 45431U 20020H   23324.59217461  .00000495  00000+0  13603-2 0  9992
2 45431  87.8999 207.7453 0001821  81.0320 279.1014 13.11415460179505
ONEWEB-0027             
1 45432U 20020J   23324.59550726 -.00000011  00000+0 -60578-4 0  9998
2 45432  87.9228 192.6331 0001685  87.7592 272.3732 13.17649045182624
ONEWEB-0064             
1 45433U 20020K   23324.43794478  .00000531  00000+0  14637-2 0  9994
2 45433  87.8993 207.7933 0001506  88.1604 271.9696 13.11417748179515
ONEWEB-0018             
1 45434U 20020L   23324.39410922 -.00000336  00000+0 -98343-3 0  9991
2 45434  87.9001 207.7944 0001495  71.1711 288.9579 13.11414994179458
ONEWEB-0083             
1 45435U 20020M   23324.38275152  .00000118  00000+0  29808-3 0  9991
2 45435  87.8992 207.7787 0001611  77.9147 282.2161 13.11413797179509
ONEWEB-0095             
1 45436U 20020N   23324.37477327  .00000397  00000+0  10846-2 0  9999
2 45436  87.8998 207.8176 0001972  78.3989 281.7361 13.11416111179495
ONEWEB-0092             
1 45437U 20020P   23324.41845564  .00001101  00000+0  30708-2 0  9990
2 45437  87.9002 207.7880 0002153  76.9377 283.1991 13.11409047179610
ONEWEB-0085             
1 45438U 20020Q   23324.37625567  .00000271  00000+0  73002-3 0  9997
2 45438  87.8989 207.8024 0001377  75.6029 284.5252 13.11415560179490
ONEWEB-0096             
1 45439U 20020R   23324.38438152  .00000020  00000+0  19363-4 0  9994
2 45439  87.8992 207.7745 0001437  67.1567 292.9713 13.11411475179490
ONEWEB-0037             
1 45440U 20020S   23324.59540591  .00000523  00000+0  14406-2 0  9999
2 45440  87.8986 207.7292 0001814  69.3341 290.7982 13.11417636179540
ONEWEB-0042             
1 45441U 20020T   23324.60339384  .00000357  00000+0  97248-3 0  9999
2 45441  87.8991 207.7475 0001626  67.5176 292.6124 13.11416258179512
ONEWEB-0098             
1 45442U 20020U   23324.36815073  .00000578  00000+0  15936-2 0  9995
2 45442  87.9000 207.8004 0001435  78.2524 281.8765 13.11417587179469
ONEWEB-0055             
1 45443U 20020V   23324.43226562  .00000385  00000+0  10498-2 0  9997
2 45443  87.8999 207.7919 0001426  74.4548 285.6737 13.11417375179448
ONEWEB-0093             
1 45444U 20020W   23324.17659550 -.00000046  00000+0 -16624-3 0  9990
2 45444  87.8995 207.8237 0001385  71.0995 289.0283 13.11414792179479
ONEWEB-0029             
1 45445U 20020X   23324.57754620  .00000113  00000+0  28381-3 0  9995
2 45445  87.9000 207.7552 0001674  66.0041 294.1262 13.11418851179502
ONEWEB-0068             
1 45446U 20020Y   23324.39979061 -.00000455  00000+0 -13185-2 0  9990
2 45446  87.8994 207.7778 0001461  68.2615 291.8669 13.11418167179436
ONEWEB-0046             
1 45447U 20020Z   23324.39734962 -.00000469  00000+0 -13604-2 0  9991
2 45447  87.8992 207.7908 0001945  72.3903 287.7438 13.11414650179445
